#cP2023  9  6  0  0  0.00000000      96 ORBIT IGS20 HLM  IGS
## 2278 259200.00000000   900.00000000 60193 0.0000000000000
+   32   G01G02G03G04G05G06G07G08G09G10G11G12G13G14G15G16G17
+        G18G19G20G21G22G23G24G25G26G27G28G29G30G31G32  0  0
+          0  0  0  0  0  0  0  0  0  0  0  0  0  0  0  0  0
+          0  0  0  0  0  0  0  0  0  0  0  0  0  0  0  0  0
+          0  0  0  0  0  0  0  0  0  0  0  0  0  0  0  0  0
++         2  2  2  2  2  2  2  2  2  2  2  2  2  2  2  2  2
++         2  2  2  2  2  2  2  2  2  2  2  2  2  2  2  0  0
++         0  0  0  0  0  0  0  0  0  0  0  0  0  0  0  0  0
++         0  0  0  0  0  0  0  0  0  0  0  0  0  0  0  0  0
++         0  0  0  0  0  0  0  0  0  0  0  0  0  0  0  0  0
%c G  cc GPS ccc cccc cccc cccc cccc ccccc ccccc ccccc ccccc
%c cc cc ccc ccc cccc cccc cccc cccc ccccc ccccc ccccc ccccc
%f  1.2500000  1.025000000  0.00000000000  0.000000000000000
%f  0.0000000  0.000000000  0.00000000000  0.000000000000000
%i    0    0    0    0      0      0      0      0         0
%i    0    0    0    0      0      0      0      0         0
/* RAPID ORBIT COMBINATION FROM WEIGHTED AVERAGE OF:        
/* cod emr esa gfz grg jgx jpl ngs sio usn whu              
/* REFERENCED TO IGS TIME (IGST) AND TO WEIGHTED MEAN POLE: 
/* PCV:IGS20      OL/AL:FES2014b NONE     Y  ORB:CMB CLK:CMB
*  2023  9  6 22 30  0.00000000
PG01 -20740.163566 -13154.367867  10191.773371    166.160559  8  6  8  89       
PG02 -21214.755955 -15781.163499   3848.462024   -556.960010  9  7  7  92       
PG03 -14186.446679  -3947.668788  21955.733742   -149.012123  6  4  5  75       
PG04 -25025.882234  -1515.936665   8957.124405    148.350439 10  8  6 102       
PG05   7444.176617  18869.514594 -17277.157176   -141.723365  5  6  8 110       
PG06   -847.918005  18072.812972  19474.715498    554.708637  5  8  6  89       
PG07 -17075.817544   2428.894759 -19851.446576     74.472436  5  7  6 112       
PG08 -18688.015536  -7845.252848 -17444.824534   -140.955227  6  6  6 109       
PG09 -25820.305339   6319.666026    294.598923    -66.698849  6  5  6  80       
PG10  10924.113323 -23370.484439  -5371.644507    -52.340181  4  3  5  81       
PG11  10571.853138  22555.103566   9300.569720   -356.306827  7  8  7  72       
PG12  12503.458014   8884.337143  21419.921069   -421.776946  6  5  4  56       
PG13  10080.453265  13435.719437 -20817.918242    569.399290  6  6  6 100       
PG14 -13533.111506  21160.790132  -8345.537002    177.128951  2  6  4  88       
PG15  20008.521224   5830.816400 -17082.583540     75.022753 10  6  7  81       
PG16  -1919.213568 -22108.700347 -14554.855503   -457.882029  7  4  6 105       
PG17 -17579.316670  13407.982927  15232.339641    723.551880  6  7  5  94       
PG18  15163.888329  -4753.627271 -21307.746588   -408.637651  6  8  6  83       
PG19  -9710.427260  14635.357340  19612.555247    367.976841  7  7  4  84       
PG20   2016.294728  25538.302271  -7335.031224    413.225871  6  4  6  87       
PG21 -20731.341123 -17360.540505   1442.899228    149.406137 10  5  8  90       
PG22 -10385.410422  24593.115336   -382.689219    126.862483  5  5     84       
PG23  15331.898816 -14319.302844 -16179.115820     64.881993  6  5  6  75       
PG24  21774.367007  14681.912085   4888.361396   -312.087048  7  6  6 108       
PG25  16366.805041  -6642.309895  19439.570828    466.371095  7  3  6  89       
PG26   3154.757610 -25932.666966  -3723.830306    229.717559  6  5  5 104       
PG27  -6400.265702 -14043.721390 -21899.049786    -35.143393  7  6  7 115       
PG28   2370.079414 -17345.362145  19953.682505     -6.397002  6  6  3 113       
PG29  26323.385070  -3955.177844    -11.141661   -608.986368  8  5  5 101       
PG30  -9822.962118  12399.083270 -21197.130161   -490.065376  2  7  4 101       
PG31  -6283.297214 -21584.643033  13619.632138   -223.003469  6  7  3 108       
PG32  12975.828999 -15522.084175  17280.162098   -553.681417  4  4  7  87       
*  2023  9  6 22 45  0.00000000
PG01 -21362.498377 -14007.286837   7540.617207    166.159667  9  6  9 102       
PG02 -21240.786726 -16091.200907   1006.155826   -556.956126 10  7  8 104       
PG03 -13513.142597  -6387.328802  21816.479450   -148.994028  5  4  6  87       
PG04 -23937.097979  -1978.760496  11478.023189    148.360538 10  8  6  99       
PG05   6889.676026  20629.790550 -15359.997482   -141.725094  5  6  8 104       
PG06  -2493.129554  16488.921651  20711.869616    554.702872  5  8  6  77       
PG07 -18604.007856    726.902406 -18647.415627     74.462613  6  7  6 109       
PG08 -16748.115719  -8545.566669 -18987.608207   -140.957243  6  6  7 116       
PG09 -25696.390964   6010.400369   3131.010423    -66.689650  6  5  6  59       
PG10  10924.975788 -22541.373858  -8142.448329    -52.342324  5  3  5  99       
PG11   9612.996787  21798.379946  11806.223444   -356.323137  6  8  7  73       
PG12  11641.413151  11202.221709  20824.685525   -421.780573  7  4  4  61       
PG13   7724.002185  13767.005093 -21583.157661    569.403899  6  6  6 102       
PG14 -13473.105060  20018.856760 -10884.209015    177.139267  4  6  4  92       
PG15  18268.854677   6746.666383 -18645.125786     75.026142 10  6  7  66       
PG16  -1196.085970 -23446.358955 -12276.357444   -457.877285  7  4  7 109       
PG17 -19123.951979  13559.801714  13021.893500    723.551984  5  7  5  90       
PG18  16767.015760  -2992.163985 -20423.828638   -408.649119  6  8  7  70       
PG19 -11913.926695  14839.113169  18178.345585    367.981540  6  7  4  74       
PG20   1690.373648  26196.373071  -4622.832686    413.224064  5  4  6  78       
PG21 -20573.549755 -17466.776741  -1362.863343    149.405422 11  4  8  95       
PG22 -10511.868606  24274.372074  -3217.498952    126.856008  4  5     94       
PG23  15012.517838 -12381.180872 -17991.704655     64.886558  7  6  6  81       
PG24  21920.596031  15192.541021   2148.626378   -312.096860  7  6  6 106       
PG25  15894.149842  -4331.492098  20464.934489    466.372973  6  3  6  83       
PG26   3557.303834 -26115.170139   -921.658963    229.715897  5  5  5 113       
PG27  -4027.420980 -14674.984930 -22015.040320    -35.149143  7  6  7 121       
PG28   4135.562617 -15802.963213  20922.378044     -6.401266  6  5  2 113       
PG29  26195.970709  -3722.411831   2860.823495   -608.986919  8  5  5  98       
PG30 -11564.061281  10652.217737 -21291.668685   -490.062351  3  7  5  97       
PG31  -4929.270635 -20492.180171  15715.459125   -223.004033  6  7  3 109       
PG32  14803.300344 -15839.220686  15382.845272   -553.687035  4  5  8  88       
*  2023  9  6 23  0  0.00000000
PG01 -21807.426574 -14610.997216   4760.726217    166.158747 10  6  9  98       
PG02 -21024.647453 -16208.933862  -1853.213814   -556.951935 10  7  8 111       
PG03 -12982.503687  -8822.131481  21296.947391   -148.975946  5  3  6  91       
PG04 -22611.210571  -2574.926923  13802.711582    148.370654 10  7  6 102       
PG05   6465.259619  22190.340357 -13180.488696   -141.725693  5  5  8 115       
PG06  -4313.444176  14920.644094  21593.873613    554.697160  6  8  7  88       
PG07 -20095.367982   -786.384498 -17114.785264     74.453028  6  7  7 114       
PG08 -14699.123760  -9400.216734 -20209.523785   -140.960227  7  7  7 121       
PG09 -25288.985567   5588.676411   5913.614704    -66.680461  6  6  6 102       
PG10  10908.663111 -21409.968862 -10769.562795    -52.344361  6  4  5 101       
PG11   8421.760598  20902.344250  14109.344360   -356.339442  6  8  7  86       
PG12  10925.899480  13474.513843  19862.782949   -421.784740  6  3  5  82       
PG13   5323.096983  14237.749176 -21984.436892    569.408292  4  5  6 119       
PG14 -13404.465728  18606.164138 -13233.676966    177.149551  4  6  5  93       
PG15  16437.245298   7815.124335 -19900.894723     75.029386 10  6  7  88       
PG16   -618.689884 -24563.250824  -9785.007708   -457.872202  8  3  7 116       
PG17 -20409.579795  13728.974590  10593.731790    723.552787  5  8  6 109       
PG18  18374.702879  -1403.234021 -19189.790253   -408.660649  7  8  7 110       
PG19 -13925.765605  15120.962381  16422.607650    367.986240  5  7  5  97       
PG20   1410.071092  26560.335813  -1831.901596    413.222465  6  5  7  91       
PG21 -20170.143268 -17399.170069  -4146.298638    149.404680 10  5  8  95       
PG22 -10565.625768  23657.703083  -5997.422129    126.849255  3  5    101       
PG23  14765.194508 -10244.353858 -19492.667740     64.891174  7  6  6  81       
PG24  21845.900252  15507.767407   -627.318930   -312.106644  7  6  5 112       
PG25  15518.205174  -1906.421374  21126.462484    466.374853  6  3  6  91       
PG26   3908.112276 -25999.838705   1896.700881    229.714281  5  5  5 118       
PG27  -1695.317133 -15431.467488 -21760.737890    -35.154880  7  6  7 120       
PG28   6047.774543 -14297.509774  21530.403543     -6.405537  5  5  2 112       
PG29  25768.647962  -3405.439430   5683.835623   -608.987373  8  4  5  80       
PG30 -13377.053779   8999.306929 -21015.996746   -490.059308  3  8  6 107       
PG31  -3359.774178 -19315.993658  17532.465969   -223.004319  5  7  4 110       
PG32  16396.969433 -16177.136811  13221.491384   -553.692638  5  5  8  86       
EOF
